{
  "updatedAt": "2026-03-20T16:26:01.420Z",
  "entries": {
    "cas500-1-47932": {
      "fetchedAt": "2026-03-20T16:26:01.420Z",
      "fleetEntry": {
        "id": "cas500-1-47932",
        "name": "CAS500-1",
        "englishName": "CAS500-1",
        "domesticName": "CAS500-1",
        "color": "#79c6a5",
        "norad": "47932",
        "orbitClass": "leo",
        "orbitLabel": "LEO SSO",
        "missionType": "earth-observation",
        "missionLabel": "지구관측",
        "operationalStatus": "비현역",
        "objectId": "2021-022A",
        "launchDate": "2021-03-22",
        "sourceDate": "2026-03-20",
        "sourceLabel": "Space-Track cached GP",
        "omm": {
          "CCSDS_OMM_VERS": "3.0",
          "COMMENT": "GENERATED VIA SPACE-TRACK.ORG API",
          "CREATION_DATE": "2026-03-20T14:36:41",
          "ORIGINATOR": "18 SPCS",
          "OBJECT_NAME": "CAS500-1",
          "OBJECT_ID": "2021-022A",
          "CENTER_NAME": "EARTH",
          "REF_FRAME": "TEME",
          "TIME_SYSTEM": "UTC",
          "MEAN_ELEMENT_THEORY": "SGP4",
          "EPOCH": "2026-03-20T12:43:21.052128",
          "MEAN_MOTION": 15.20145266,
          "ECCENTRICITY": 0.0004172,
          "INCLINATION": 97.3996,
          "RA_OF_ASC_NODE": 336.5288,
          "ARG_OF_PERICENTER": 225.6324,
          "MEAN_ANOMALY": 134.457,
          "EPHEMERIS_TYPE": 0,
          "CLASSIFICATION_TYPE": "U",
          "NORAD_CAT_ID": 47932,
          "ELEMENT_SET_NO": 999,
          "REV_AT_EPOCH": 27729,
          "BSTAR": 0.00028374,
          "MEAN_MOTION_DOT": 0.00006071,
          "MEAN_MOTION_DDOT": 0,
          "SEMIMAJOR_AXIS": "6883.539",
          "PERIOD": "94.728",
          "APOAPSIS": "508.276",
          "PERIAPSIS": "502.532",
          "OBJECT_TYPE": "PAYLOAD",
          "RCS_SIZE": "LARGE",
          "COUNTRY_CODE": "SKOR",
          "LAUNCH_DATE": "2021-03-22",
          "SITE": "TTMTR",
          "DECAY_DATE": null,
          "FILE": "5093407",
          "GP_ID": "316571457",
          "TLE_LINE0": "0 CAS500-1",
          "TLE_LINE1": "1 47932U 21022A   26079.53010477  .00006071  00000-0  28374-3 0  9994",
          "TLE_LINE2": "2 47932  97.3996 336.5288 0004172 225.6324 134.4570 15.20145266277296"
        }
      }
    },
    "step-cube-lab-ii-52897": {
      "fetchedAt": "2026-03-20T16:26:01.420Z",
      "fleetEntry": {
        "id": "step-cube-lab-ii-52897",
        "name": "STEP CUBE LAB-II",
        "englishName": "STEP CUBE LAB-II",
        "domesticName": "STEP CUBE LAB-II",
        "color": "#7bdff2",
        "norad": "52897",
        "orbitClass": "leo",
        "orbitLabel": "LEO SSO",
        "missionType": "technology",
        "missionLabel": "기술실증/학술",
        "operationalStatus": "비현역",
        "objectId": "2022-065D",
        "launchDate": "2022-06-21",
        "sourceDate": "2026-03-20",
        "sourceLabel": "Space-Track cached GP",
        "omm": {
          "CCSDS_OMM_VERS": "3.0",
          "COMMENT": "GENERATED VIA SPACE-TRACK.ORG API",
          "CREATION_DATE": "2026-03-20T14:36:41",
          "ORIGINATOR": "18 SPCS",
          "OBJECT_NAME": "STEP CUBE LAB-II",
          "OBJECT_ID": "2022-065D",
          "CENTER_NAME": "EARTH",
          "REF_FRAME": "TEME",
          "TIME_SYSTEM": "UTC",
          "MEAN_ELEMENT_THEORY": "SGP4",
          "EPOCH": "2026-03-20T12:17:05.512704",
          "MEAN_MOTION": 14.63140121,
          "ECCENTRICITY": 0.0007561,
          "INCLINATION": 98.2065,
          "RA_OF_ASC_NODE": 223.7607,
          "ARG_OF_PERICENTER": 308.2923,
          "MEAN_ANOMALY": 51.7599,
          "EPHEMERIS_TYPE": 0,
          "CLASSIFICATION_TYPE": "U",
          "NORAD_CAT_ID": 52897,
          "ELEMENT_SET_NO": 999,
          "REV_AT_EPOCH": 19853,
          "BSTAR": 0.00014243,
          "MEAN_MOTION_DOT": 0.00000684,
          "MEAN_MOTION_DDOT": 0,
          "SEMIMAJOR_AXIS": "7061.190",
          "PERIOD": "98.418",
          "APOAPSIS": "688.394",
          "PERIAPSIS": "677.716",
          "OBJECT_TYPE": "PAYLOAD",
          "RCS_SIZE": "MEDIUM",
          "COUNTRY_CODE": "SKOR",
          "LAUNCH_DATE": "2022-06-21",
          "SITE": "NSC",
          "DECAY_DATE": null,
          "FILE": "5093490",
          "GP_ID": "316573543",
          "TLE_LINE0": "0 STEP CUBE LAB-II",
          "TLE_LINE1": "1 52897U 22065D   26079.51186936  .00000684  00000-0  14243-3 0  9994",
          "TLE_LINE2": "2 52897  98.2065 223.7607 0007561 308.2923  51.7599 14.63140121198531"
        }
      }
    },
    "pvsat-52894": {
      "fetchedAt": "2026-03-20T16:26:01.420Z",
      "fleetEntry": {
        "id": "pvsat-52894",
        "name": "PVSAT",
        "englishName": "PVSAT",
        "domesticName": "PVSAT",
        "color": "#f6bd60",
        "norad": "52894",
        "orbitClass": "leo",
        "orbitLabel": "LEO SSO",
        "missionType": "technology",
        "missionLabel": "기술실증/학술",
        "operationalStatus": "비현역",
        "objectId": "2022-065A",
        "launchDate": "2022-06-21",
        "sourceDate": "2026-03-20",
        "sourceLabel": "Space-Track cached GP",
        "omm": {
          "CCSDS_OMM_VERS": "3.0",
          "COMMENT": "GENERATED VIA SPACE-TRACK.ORG API",
          "CREATION_DATE": "2026-03-20T14:36:41",
          "ORIGINATOR": "18 SPCS",
          "OBJECT_NAME": "PVSAT",
          "OBJECT_ID": "2022-065A",
          "CENTER_NAME": "EARTH",
          "REF_FRAME": "TEME",
          "TIME_SYSTEM": "UTC",
          "MEAN_ELEMENT_THEORY": "SGP4",
          "EPOCH": "2026-03-20T08:19:21.390240",
          "MEAN_MOTION": 14.59481873,
          "ECCENTRICITY": 0.0008152,
          "INCLINATION": 98.2126,
          "RA_OF_ASC_NODE": 219.5617,
          "ARG_OF_PERICENTER": 298.1289,
          "MEAN_ANOMALY": 61.9086,
          "EPHEMERIS_TYPE": 0,
          "CLASSIFICATION_TYPE": "U",
          "NORAD_CAT_ID": 52894,
          "ELEMENT_SET_NO": 999,
          "REV_AT_EPOCH": 19939,
          "BSTAR": 0.000072093,
          "MEAN_MOTION_DOT": 0.00000295,
          "MEAN_MOTION_DDOT": 0,
          "SEMIMAJOR_AXIS": "7072.984",
          "PERIOD": "98.665",
          "APOAPSIS": "700.615",
          "PERIAPSIS": "689.084",
          "OBJECT_TYPE": "PAYLOAD",
          "RCS_SIZE": "MEDIUM",
          "COUNTRY_CODE": "SKOR",
          "LAUNCH_DATE": "2022-06-21",
          "SITE": "NSC",
          "DECAY_DATE": null,
          "FILE": "5093489",
          "GP_ID": "316573538",
          "TLE_LINE0": "0 PVSAT",
          "TLE_LINE1": "1 52894U 22065A   26079.34677535  .00000295  00000-0  72093-4 0  9998",
          "TLE_LINE2": "2 52894  98.2126 219.5617 0008152 298.1289  61.9086 14.59481873199395"
        }
      }
    },
    "kslv-ii-dummy-52895": {
      "fetchedAt": "2026-03-20T16:26:01.420Z",
      "fleetEntry": {
        "id": "kslv-ii-dummy-52895",
        "name": "KSLV-II DUMMY",
        "englishName": "KSLV-II DUMMY",
        "domesticName": "KSLV-II DUMMY",
        "color": "#ff9059",
        "norad": "52895",
        "orbitClass": "leo",
        "orbitLabel": "LEO SSO",
        "missionType": "technology",
        "missionLabel": "기술실증/학술",
        "operationalStatus": "비현역",
        "objectId": "2022-065B",
        "launchDate": "2022-06-21",
        "sourceDate": "2026-03-20",
        "sourceLabel": "Space-Track cached GP",
        "omm": {
          "CCSDS_OMM_VERS": "3.0",
          "COMMENT": "GENERATED VIA SPACE-TRACK.ORG API",
          "CREATION_DATE": "2026-03-20T14:36:41",
          "ORIGINATOR": "18 SPCS",
          "OBJECT_NAME": "KSLV-II DUMMY",
          "OBJECT_ID": "2022-065B",
          "CENTER_NAME": "EARTH",
          "REF_FRAME": "TEME",
          "TIME_SYSTEM": "UTC",
          "MEAN_ELEMENT_THEORY": "SGP4",
          "EPOCH": "2026-03-20T08:14:51.600192",
          "MEAN_MOTION": 14.58676418,
          "ECCENTRICITY": 0.0007382,
          "INCLINATION": 98.2182,
          "RA_OF_ASC_NODE": 220.0762,
          "ARG_OF_PERICENTER": 319.7541,
          "MEAN_ANOMALY": 40.3111,
          "EPHEMERIS_TYPE": 0,
          "CLASSIFICATION_TYPE": "U",
          "NORAD_CAT_ID": 52895,
          "ELEMENT_SET_NO": 999,
          "REV_AT_EPOCH": 19940,
          "BSTAR": 0.00001736,
          "MEAN_MOTION_DOT": 3.5e-7,
          "MEAN_MOTION_DDOT": 0,
          "SEMIMAJOR_AXIS": "7075.588",
          "PERIOD": "98.720",
          "APOAPSIS": "702.676",
          "PERIAPSIS": "692.230",
          "OBJECT_TYPE": "PAYLOAD",
          "RCS_SIZE": "MEDIUM",
          "COUNTRY_CODE": "SKOR",
          "LAUNCH_DATE": "2022-06-21",
          "SITE": "NSC",
          "DECAY_DATE": null,
          "FILE": "5093489",
          "GP_ID": "316573037",
          "TLE_LINE0": "0 KSLV-II DUMMY",
          "TLE_LINE1": "1 52895U 22065B   26079.34365278  .00000035  00000-0  17360-4 0  9995",
          "TLE_LINE2": "2 52895  98.2182 220.0762 0007382 319.7541  40.3111 14.58676418199403"
        }
      }
    }
  }
}